"","Brand","Store.Number","Street.Address","City","State.Province","Postcode","Longitude","Latitude"
"1","Starbucks","3509-142865","2055 Airport Hwy","Alcoa","TN","377013316",-83.99,35.81
"2","Starbucks","11293-104144","121 Cusick Rd","Alcoa","TN","377013125",-83.98,35.81
"3","Starbucks","8928-95178","5253 Hickory Hollow Pkwy","Antioch","TN","370133003",-86.66,36.05
"4","Starbucks","18985-190184","917 Decatur Pike, Stage Centre","Athens","TN","37303",-84.61,35.45
"5","Starbucks","8402-13859","2955 Kirby-Whitten Pkwy","Bartlett","TN","38134",-89.84,35.21
"6","Starbucks","8444-27050","8121 Highway 100","Bellevue","TN","372214213",-86.96,36.04
"7","Starbucks","76417-95742","780 Old Hickory Blvd","Brentwood","TN","370274527",-86.78,36.04
"8","Starbucks","11203-103818","6680 Nolensville Road, Lot 3/ Mill Towne Center","Brentwood","TN","370278803",-86.69,36
"9","Starbucks","9778-97231","198 Westpark Drive","Brentwood","TN","370275003",-86.8,36.04
"10","Starbucks","8338-7609","269 Franklin Road","Brentwood","TN","370275214",-86.79,36.03
"11","Starbucks","3839-147944","615 McCallie Ave","Chattanooga","TN","37403",-85.3,35.05
"12","Starbucks","75646-87982","827 Broad St","Chattanooga","TN","374022622",-85.31,35.05
"13","Starbucks","2870-92742","1951 Gunbarrel Rd","Chattanooga","TN","374213106",-85.16,35.03
"14","Starbucks","11818-105040","2217 Hamilton Place Blvd","Chattanooga","TN","374216005",-85.16,35.04
"15","Starbucks","75182-82497","975 East 3rd Street","Chattanooga","TN","374032147",-85.29,35.05
"16","Starbucks","11069-103668","5610 Brainerd Rd, Hamilton Place","Chattanooga","TN","374115310",-85.21,35.01
"17","Starbucks","16527-155466","601 College St","Clarksville","TN","370440001",-87.35,36.53
"18","Starbucks","23399-229305","1674 Ft Campbell Blvd","Clarksville","TN","37042",-87.41,36.58
"19","Starbucks","10845-102017","2235 Madison Street","Clarksville","TN","370435287",-87.27,36.51
"20","Starbucks","23474-230264","2141 Wilma Rudolph Blvd","Clarksville","TN","37040",-87.31,36.56
"21","Starbucks","9927-98925","100 South Hampton","Clarksville","TN","370405033",-87.29,36.59
"22","Starbucks","10211-99817","653 West Inman St","Cleveland","TN","373111786",-84.88,35.16
"23","Starbucks","76881-121299","4570 Frontage Rd NW","Cleveland","TN","373122905",-84.84,35.26
"24","Starbucks","17746-178124","615 Paul Huff Parkway NW","Cleveland","TN","37312",-84.86,35.21
"25","Starbucks","10084-99523","3603 S Houston Levee Rd","Collierville","TN","380179014",-89.73,35.05
"26","Starbucks","8362-16534","897 Poplar","Collierville","TN","380175145",-89.69,35.05
"27","Starbucks","76241-91588","325 New Byhalia Rd","Collierville","TN","380173705",-89.69,35.05
"28","Starbucks","25983-237524","1202 S James Campbell Blvd","Columbia","TN","38401",-87.06,35.6
"29","Starbucks","10616-101627","1105 Interstate Drive","Cookeville","TN","385014133",-85.51,36.14
"30","Starbucks","70334-135770","1000 North Dixie","Cookeville","TN","38505",-85.5,36.17
"31","Starbucks","10791-102282","1181 North Houston Levee","Cordova","TN","380186616",-89.73,35.16
"32","Starbucks","76119-90840","475 N Germantown Pkwy","Cordova","TN","380186209",-89.8,35.14
"33","Starbucks","11555-105318","970 N. Germantown","Cordova","TN","380185892",-89.79,35.15
"34","Starbucks","22992-226884","1641 N. Germantown Pkwy","Cordova","TN","38016",-89.79,35.17
"35","Starbucks","20852-208193","265 Highland Square","Crossville","TN","38555",-85.04,35.96
"36","Starbucks","18984-190185","11817 Kingston Pike","Farragut","TN","37934",-84.12,35.9
"37","Starbucks","73972-107551","189 Brooklawn Street","Farragut","TN","379342875",-84.18,35.88
"38","Starbucks","17007-144605","5201 N Broadway St & Knox Rd","Fountain City","TN","37918",-83.92,36.05
"39","Starbucks","76341-95743","3064 Columbia","Franklin","TN","370647424",-86.88,35.89
"40","Starbucks","29015-245748","1203 Murfreesboro Road","Franklin","TN","37067",-86.83,35.92
"41","Starbucks","8349-5898","555 Cool Springs Rd, Coolsprings Galleria","Franklin","TN","370672680",-86.82,35.95
"42","Starbucks","19546-196065","1800 Galleria Blvd, 2386, Cool Springs Galleria","Franklin","TN","37067",-86.81,35.96
"43","Starbucks","8477-18459","204 S. ROYAL OAKS BLVD, Carothers Place","Franklin","TN","370645313",-86.83,35.91
"44","Starbucks","10172-99764","9175 Carothers Parkway, 101","Franklin","TN","370676317",-86.8,35.96
"45","Starbucks","8394-27036","438 Main Street, Space 168","Franklin","TN","370642720",-86.87,35.92
"46","Starbucks","10646-101838","875 Nashville Pike","Gallatin","TN","370663103",-86.47,36.38
"47","Starbucks","6172-148992","2011 Nashville Pike","Gallatin","TN","370663162",-86.52,36.35
"48","Starbucks","23323-217687","903 Parkway, 101","Gatlinburg","TN","37738",-83.52,35.71
"49","Starbucks","76207-89121","9235 US Hwy 72","Germantown","TN","38138",-89.76,35.06
"50","Starbucks","9965-99083","7570 Poplar Avenue","Germantown","TN","381383807",-89.81,35.09
"51","Starbucks","24873-230636","7735 Farmington Blvd","Germantown","TN","38138",-89.81,35.1
"52","Starbucks","26128-102998","123 Northcreek Blvd","Goodletsville","TN","370721998",-86.7,36.33
"53","Starbucks","79286-100709","1820 Roane State Highway","Harriman","TN","377488307",-84.55,35.89
"54","Starbucks","8347-9117","201 W Main","Hendersonville","TN","370753306",-86.62,36.3
"55","Starbucks","17948-182404","1004 Andrews Run","Hendersonville","TN","37075",-86.59,36.35
"56","Starbucks","8996-95185","1017 Glenbrook Way","Hendersonville","TN","370751231",-86.62,36.33
"57","Starbucks","19789-195024","305 Indian Lake Blvd., 100","Hendersonville","TN","37075",-86.59,36.33
"58","Starbucks","11294-103820","5008 Old Hickory Blvd","Hermitage","TN","37076",-86.62,36.19
"59","Starbucks","9805-97270","4495 Lebanon Pike","Hermitage","TN","370761311",-86.6,36.21
"60","Starbucks","9892-97271","5238 Highway 153","Hixson","TN","373434911",-85.24,35.12
"61","Starbucks","76462-90903","5579 Hwy 153, Towne Centre North","Hixson","TN","373433748",-85.25,35.15
"62","Starbucks","8527-70020","907 Vann Drive, E","Jackson","TN","383056046",-88.85,35.67
"63","Starbucks","23398-229324","2034 N Highland","Jackson","TN","38305",-88.83,35.66
"64","Starbucks","25531-240707","8 Lanese Dockery Dr","Jackson","TN","38305",-88.86,35.68
"65","Starbucks","76148-93379","93 Stonebrook Pl","Jackson","TN","383053637",-88.86,35.69
"66","Starbucks","23183-95271","35 W University Pkwy","Jackson","TN","383051668",-88.83,35.7
"67","Starbucks","24260-236565","1150 W. State of Franklin Rd, 10","Johnson City","TN","37604",-82.37,36.31
"68","Starbucks","22313-215029","1805 W State of Franklin Rd","Johnson City","TN","37604",-82.38,36.3
"69","Starbucks","18279-131791","101 Burgin Dossett Hall","Johnson City","TN","37614",-82.37,36.3
"70","Starbucks","8602-88440","2008 North Roan St","Johnson City","TN","376013120",-82.37,36.34
"71","Starbucks","76649-99851","2116 N Roan St","Johnson City","TN","37601",-82.38,36.34
"72","Starbucks","17933-186984","1200 W Jackson Blvd","Jonesborough","TN","37659",-82.49,36.29
"73","Starbucks","13504-104466","1860 N Eastman Road","Kingsport","TN","376642312",-82.52,36.54
"74","Starbucks","76845-110955","2626 E Stone Dr","Kingsport","TN","376605883",-82.49,36.55
"75","Starbucks","10173-97266","2021 Cumberland Avenue","Knoxville","TN","379162909",-83.94,35.95
"76","Starbucks","72550-101116","9161 Middlebrook Pike","Knoxville","TN","379231438",-84.09,35.94
"77","Starbucks","72657-64919","11100 Parkside Dr","Knoxville","TN","379341960",-84.15,35.9
"78","Starbucks","11655-105044","7803 Montvue Center Way","Knoxville","TN","379195575",-84.04,35.93
"79","Starbucks","75695-79930","501 West Church Street","Knoxville","TN","379022506",-83.92,35.96
"80","Starbucks","9780-97264","116 Merchants Drive","Knoxville","TN","379123501",-83.97,36.01
"81","Starbucks","19129-192727","115 Moss Grove Blvd.","Knoxville","TN","37922",-84.09,35.91
"82","Starbucks","70025-105019","1235 Phillip Fulmer Way","Knoxville","TN","379964511",-83.93,35.95
"83","Starbucks","72549-101114","9501 S. Northshore Dr., West Town Knoxville","Knoxville","TN","379225814",-84.07,35.86
"84","Starbucks","17209-170647","9225 Kingston Rd.","Knoxville","TN","379223660",-84.09,35.91
"85","Starbucks","8578-82640","329 N Cedar Bluff Blvd","Knoxville","TN","379234507",-84.09,35.92
"86","Starbucks","19156-196044","7600 Kingston Pike","Knoxville","TN","37919",-84.04,35.93
"87","Starbucks","76590-97611","4700 New Harvest Ln","Knoxville","TN","379187000",-83.89,36.04
"88","Starbucks","75119-60419","1017 Francis Street","Knoxville","TN","379163433",-83.93,35.95
"89","Starbucks","17546-166068","1900 Town Center Blvd","Knoxville","TN","37922",-84.1,35.87
"90","Starbucks","8536-65600","4924 Kingston Pike","Knoxville","TN","379195111",-83.99,35.94
"91","Starbucks","8590-85180","11038 Park Side Dr","Knoxville","TN","379341952",-84.15,35.9
"92","Starbucks","21676-194333","8040 Ray Mears Blvd","Knoxville West","TN","37919",-84.05,35.92
"93","Starbucks","26251-242645","9014 Highway 64, 102","Lakeland","TN","38002",-89.76,35.21
"94","Starbucks","21303-210544","9025 Hwy 64","Lakeland","TN","38002",-89.76,35.2
"95","Starbucks","22767-216485","604 S Cumberland St","Lebanon","TN","37087",-86.29,36.19
"96","Starbucks","47952-260464","404 Hwy 321 N","Lenoir City","TN","37771",-84.26,35.8
"97","Starbucks","23875-231824","870 Hwy 321 N, 1","Lenor City","TN","37771",-84.27,35.82
"98","Starbucks","8551-75322","1907 Gallatin Pike North","Madison","TN","371152027",-86.7,36.3
"99","Starbucks","10574-101089","84 Campground","Manchester","TN","373556541",-86.05,35.46
"100","Starbucks","26008-237282","730 Watkins Rd","Maryville","TN","37801",-83.99,35.75
"101","Starbucks","11820-106483","1011 W Lamar Alexander Pkwy","Maryville","TN","378014580",-83.99,35.75
"102","Starbucks","13547-107882","5679 Poplar Ave, 103","Memphis","TN","381193854",-89.87,35.1
"103","Starbucks","19344-194452","506 University St","Memphis","TN","38112",-89.99,35.15
"104","Starbucks","78038-115427","2491 Winchester Rd","Memphis","TN","381163851",-89.98,35.05
"105","Starbucks","8345-13178","3388 Poplar Avenue","Memphis","TN","381114644",-89.95,35.13
"106","Starbucks","5120-148331","601 Colonial Road","Memphis","TN","381175132",-89.9,35.11
"107","Starbucks","11770-104925","1615 Sycamore View","Memphis","TN","381347313",-89.87,35.17
"108","Starbucks","18200-182624","4545 Poplar Ave.","Memphis","TN","38117",-89.91,35.12
"109","Starbucks","8423-17394","6161 Poplar Avenue, Wolfchase Galleria","Memphis","TN","381194741",-89.86,35.1
"110","Starbucks","8297-5927","1850 Union Avenue","Memphis","TN","381044027",-90,35.14
"111","Starbucks","75252-95273","6019 Walnut Grove Rd","Memphis","TN","381202113",-89.86,35.13
"112","Starbucks","76352-97101","7989 US Hwy 64","Memphis","TN","381334007",-89.8,35.2
"113","Starbucks","48904-222786","1761 Union Ave, Centennial Crossing Shopping Center","Memphis","TN","38104",-90,35.14
"114","Starbucks","8450-14492","7945 Winchester Road, D","Memphis","TN","381252363",-89.8,35.05
"115","Starbucks","75805-96442","2491 Winchester Road","Memphis","TN","381163851",-89.98,35.05
"116","Starbucks","70357-138226","5959 Poplar Avenue","Memphis","TN","381193938",-89.86,35.1
"117","Starbucks","10054-69380","2801 Kirby Parkway","Memphis","TN","38119",-89.84,35.07
"118","Starbucks","75923-96829","201 S 3rd St","Memphis","TN","381034019",-90.05,35.14
"119","Starbucks","75802-97854","2491 Winchester Road","Memphis","TN","381163851",-89.98,35.05
"120","Starbucks","25391-230638","262 Danny Thomas Pl","Memphis","TN","38105",-90.04,35.15
"121","Starbucks","8360-10799","5201 Poplar Avenue","Memphis","TN","381177611",-89.89,35.11
"122","Starbucks","8352-5936","2698 N Germantown Pkwy, Wolfchase Galleria","Memphis","TN","381338115",-89.79,35.2
"123","Starbucks","13669-108417","2760 GERMANTOWN PKWY, 181","Memphis","TN","381338153",-89.79,35.2
"124","Starbucks","7954-95452","8507 Hwy 51","Millington","TN","380531535",-89.89,35.36
"125","Starbucks","19309-200485","3980 W. Andrew Johnson Hwy.","Morristown","TN","37814",-83.35,36.2
"126","Starbucks","76574-100203","401 S  Mount Juliet Rd, 600","Mount Juliet","TN","371226359",-86.51,36.17
"127","Starbucks","24573-237624","11309 Lebanon Rd","Mt Juliet","TN","37122",-86.52,36.23
"128","Starbucks","21373-211486","621 S Mt Juliet Rd, 101","Mt Juliet","TN","37122",-86.51,36.16
"129","Starbucks","22828-224024","1641 North Memorial","Murfreesboro","TN","37129",-86.39,35.87
"130","Starbucks","11821-105184","1804 Old Fort Parkway, The Avenues","Murfreesboro","TN","371293363",-86.42,35.85
"131","Starbucks","20178-188604","2615 Medical Center Parkway","Murfreesboro","TN","37129",-86.44,35.86
"132","Starbucks","13773-108477","2935 S Rutherford Blvd","Murfreesboro","TN","371305977",-86.35,35.83
"133","Starbucks","3572-86323","1611 Alumni Dr","Murfreesboro","TN","37132",-86.36,35.85
"134","Starbucks","10698-102250","2904 S Church Street, Unit A","Murfreesboro","TN","371278351",-86.4,35.79
"135","Starbucks","48897-135767","2449 Old Fort Pkwy","Murfreesboro","TN","37128",-86.44,35.84
"136","Starbucks","72579-101480","2050 Lascassas Pike","Murfreesboro","TN","371301936",-86.35,35.87
"137","Starbucks","47795-240787","Hwy 96 & Veterans Parkway","Murfreesboro","TN","37128",-86.49,35.84
"138","Starbucks","23685-232353","1851 Old Fort Pkwy","Murfreesboro","TN","37129",-86.42,35.85
"139","Starbucks","75459-105628","3901 Granny White Pike","Nashville","TN","372043903",-86.8,36.11
"140","Starbucks","76524-97607","26 White Bridge Rd","Nashville","TN","372051400",-86.85,36.13
"141","Starbucks","8300-5895","402 21st Avenue S, Mall at Green Hills","Nashville","TN","372032404",-86.8,36.15
"142","Starbucks","8414-18705","424 Church Street, Suite 110","Nashville","TN","372192342",-86.78,36.16
"143","Starbucks","75791-95462","315 4th Ave N, Opry Mills","Nashville","TN","372191601",-86.78,36.17
"144","Starbucks","17625-183305","433 Opry Mills Drive","Nashville","TN","37214",-86.69,36.2
"145","Starbucks","27319-247087","3500 John A. Merritt Blvd, Belle Meade Plaza Shopping Center","Nashville","TN","37209",-86.83,36.17
"146","Starbucks","8403-23061","4514 Harding Pike","Nashville","TN","372052102",-86.85,36.12
"147","Starbucks","78012-107811","611 Commerce St","Nashville","TN","372033742",-86.78,36.16
"148","Starbucks","70337-125287","One Terminal Drive, Suite 325","Nashville","TN","372144110",-86.67,36.13
"149","Starbucks","8317-5888","3706 Hillsboro Pike","Nashville","TN","372152149",-86.81,36.11
"150","Starbucks","5163-145369","1 Terminal Dr","Nashville","TN","372144110",-86.67,36.14
"151","Starbucks","29007-105504","210 Franklin Road, The Mall at Green Hills","Nashville","TN","370273218",-86.79,36.03
"152","Starbucks","8415-100159","2153 Green Hills Village Drive, Nipper's Corner","Nashville","TN","372152601",-86.82,36.11
"153","Starbucks","8370-13012","5533 Edmonson Pike","Nashville","TN","372115808",-86.75,36.04
"154","Starbucks","78049-125290","1 Terminal Dr","Nashville","TN","372144112",-86.67,36.14
"155","Starbucks","8356-5891","2521 West End Ave.","Nashville","TN","372031423",-86.81,36.15
"156","Starbucks","8525-66554","7083 Highway 70 S.","Nashville","TN","372212207",-86.92,36.07
"157","Starbucks","9779-95183","2308 Murfreesboro Pike","Nashville","TN","372173315",-86.65,36.09
"158","Starbucks","79223-94846","2131 Abbott Martin Rd","Nashville","TN","372152699",-86.82,36.11
"159","Starbucks","9781-97558","3005 West End Ave","Nashville","TN","372031317",-86.81,36.14
"160","Starbucks","76738-106115","3814 Charlotte Pike","Nashville","TN","372093737",-86.89,36.13
"161","Starbucks","11204-103554","515 Dominican Drive","Nashville","TN","372281924",-86.8,36.19
"162","Starbucks","8883-93790","1305 Oakridge Turnpike","Oak Ridge","TN","378306408",-84.26,36.01
"163","Starbucks","21885-212185","62 Ivanhoe Rd & Raleigh Rd","Oakridge","TN","37830",-84.26,36.01
"164","Starbucks","73873-102993","220 Wears Valley Road","Pigeon Forge","TN","378634215",-83.58,35.8
"165","Starbucks","13505-106987","2491 HIGHWAY 441","Pigeon Forge","TN","37863",-83.58,35.81
"166","Starbucks","17932-186985","430 E Emory Rd","Powell","TN","37849",-84,36.05
"167","Starbucks","11656-105033","401 East Emory Road","Powell","TN","378493518",-84,36.05
"168","Starbucks","48896-215025","I75 and Emory Rd","Powell","TN","37849",-84.06,36.05
"169","Starbucks","8555-65602","1645 Parkway, Unit 103","Sevierville","TN","378622899",-83.57,35.83
"170","Starbucks","9926-98924","646 Winfield Dunn Parkway","Sevierville","TN","378765510",-83.57,35.88
"171","Starbucks","76875-121296","803 Industrial Blvd","Smyrna","TN","371676865",-86.56,35.98
"172","Starbucks","8929-95186","620 Sam Ridley Pkwy West","Smyrna","TN","371675622",-86.56,35.98
"173","Starbucks","76876-121297","1033 Crossing Blvd","Spring Hill","TN","371742776",-86.94,35.74
"174","Starbucks","13987-114864","4839 MAIN STREET","SPRING HILL","TN","371742725",-86.91,35.78
"175","Starbucks","3055-142044","4726 Traders Way","Thompsons Station","TN","371795366",-86.91,35.78
